NORAD_CAT_ID,OBJECT_NAME,OBJECT_TYPE,EPOCH,MEAN_MOTION,ECCENTRICITY,INCLINATION,RA_OF_ASC_NODE,ARG_OF_PERICENTER,MEAN_ANOMALY,BSTAR,MEAN_MOTION_DOT,MEAN_MOTION_DDOT,TLE_LINE0,TLE_LINE1,TLE_LINE2,SEMIMAJOR_AXIS,PERIOD,APOGEE,PERIGEE,DECAYED
49423.0,STARLINK-3149,PAYLOAD,2022-03-14 14:00:01,15.08845277,0.0001756,53.2157,285.8207,49.2584,277.2216,0.0023961,0.00038058,0.0,0 STARLINK-3149,1 49423U 21104R   22073.58335648  .00038058  00000-0  23961-2 0  9993,2 49423  53.2157 285.8207 0001756  49.2584 277.2216 15.08845277  3580,6917.864000000001,95.437,540.944,538.514,0.0
49423.0,STARLINK-3149,PAYLOAD,2022-03-14 20:00:01,15.08865533,0.0001903,53.2155,284.6999,44.6098,200.5194,2.4759e-05,1.06e-06,0.0,0 STARLINK-3149,1 49423U 21104R   22073.83334491  .00000106  00000-0  24759-4 0  9997,2 49423  53.2155 284.6999 0001903  44.6098 200.5194 15.08865533 19922,6917.802,95.436,540.984,538.351,0.0
49423.0,STARLINK-3149,PAYLOAD,2022-03-15 02:00:01,15.08860908,0.0001924,53.2155,283.578,40.9584,122.8693,-0.00089125,-0.00014453,0.0,0 STARLINK-3149,1 49423U 21104R   22074.08334491 -.00014453  00000-0 -89125-3 0  9994,2 49423  53.2155 283.5780 0001924  40.9584 122.8693 15.08860908 19965,6917.816,95.436,541.012,538.35,0.0
49423.0,STARLINK-3149,PAYLOAD,2022-03-15 22:00:00,15.08797358,0.0001857,53.2158,279.8371,39.4736,333.3105,0.00097566,0.00015256,0.0,0 STARLINK-3149,1 49423U 21104R   22074.91667824  .00015256  00000-0  97566-3 0  9993,2 49423  53.2158 279.8371 0001857  39.4736 333.3105 15.08797358 20090,6918.011,95.44,541.16,538.591,0.0
49423.0,STARLINK-3149,PAYLOAD,2022-03-16 14:00:01,15.08820542,0.0001665,53.2158,276.8426,45.1445,350.7547,0.00085066,0.00013269,0.0,0 STARLINK-3149,1 49423U 21104R   22075.58334491  .00013269  00000-0  85066-3 0  9992,2 49423  53.2158 276.8426 0001665  45.1445 350.7547 15.08820542  3597,6917.94,95.439,540.957,538.653,0.0
49423.0,STARLINK-3149,PAYLOAD,2022-03-16 20:00:01,15.08822948,0.0001842,53.2156,275.7217,40.9587,273.6208,-0.00058978,-9.658e-05,0.0,0 STARLINK-3149,1 49423U 21104R   22075.83334491 -.00009658  00000-0 -58978-3 0  9991,2 49423  53.2156 275.7217 0001842  40.9587 273.6208 15.08822948  3586,6917.933000000001,95.439,541.072,538.523,0.0
49423.0,STARLINK-3149,PAYLOAD,2022-03-17 06:00:00,15.08835197,0.0001740999999999,53.2154,273.8502,42.226000000000006,16.817,-0.0014638,-0.00023506,0.0,0 STARLINK-3149,1 49423U 21104R   22076.25001157 -.00023506  00000-0 -14638-2 0  9990,2 49423  53.2154 273.8502 0001741  42.2260  16.8170 15.08835197 20293,6917.895,95.438,540.964,538.556,0.0
49423.0,STARLINK-3149,PAYLOAD,2022-03-17 14:00:01,15.08855207,0.0001818,53.2156,272.3534,48.1098,22.4993,0.00019313,2.788e-05,0.0,0 STARLINK-3149,1 49423U 21104R   22076.58334491  .00002788  00000-0  19313-3 0  9999,2 49423  53.2156 272.3534 0001818  48.1098  22.4993 15.08855207  3609,6917.834,95.437,540.957,538.441,0.0
49423.0,STARLINK-3149,PAYLOAD,2022-03-17 22:00:00,15.0883896,0.0001998,53.2154,270.8586,43.3449,38.883,0.0016120999999999,0.00025461,0.0,0 STARLINK-3149,1 49423U 21104R   22076.91667824  .00025461  00000-0  16121-2 0  9991,2 49423  53.2154 270.8586 0001998  43.3449  38.8830 15.08838960  3601,6917.884,95.438,541.131,538.366,0.0
49423.0,STARLINK-3149,PAYLOAD,2022-03-18 08:00:01,15.08842788,0.0001808,53.2151,268.9861,46.6903,140.054,0.0017168,0.00027143,0.0,0 STARLINK-3149,1 49423U 21104R   22077.33334491  .00027143  00000-0  17168-2 0  9990,2 49423  53.2151 268.9861 0001808  46.6903 140.0540 15.08842788 20452,6917.871999999999,95.437,540.988,538.486,0.0
49423.0,STARLINK-3149,PAYLOAD,2022-03-18 14:00:01,15.08870515,0.0001831,53.2152,267.8639,49.5419,55.9037,-0.00030129,-5.084e-05,0.0,0 STARLINK-3149,1 49423U 21104R   22077.58334491 -.00005084  00000-0 -30129-3 0  9992,2 49423  53.2152 267.8639 0001831  49.5419  55.9037 15.08870515  3628,6917.7869999999975,95.436,540.919,538.385,0.0
49423.0,STARLINK-3149,PAYLOAD,2022-03-18 22:00:00,15.0886029,0.000198,53.215,266.3694,43.312,73.7657,-0.00082424,-0.0001339,0.0,0 STARLINK-3149,1 49423U 21104R   22077.91667824 -.00013390  00000-0 -82424-3 0  9992,2 49423  53.2150 266.3694 0001980  43.3120  73.7657 15.08860290  3677,6917.818,95.436,541.053,538.314,0.0
49423.0,STARLINK-3149,PAYLOAD,2022-03-19 02:00:01,15.08865716,0.0001918,53.2146,265.6202,42.2397,260.704,-0.0026326,-0.00041972,0.0,0 STARLINK-3149,1 49423U 21104R   22078.08335648 -.00041972  00000-0 -26326-2 0  9992,2 49423  53.2146 265.6202 0001918  42.2397 260.7040 15.08865716 20563,6917.802,95.436,540.994,538.34,0.0
49423.0,STARLINK-3149,PAYLOAD,2022-03-19 14:00:01,15.08854769,0.0001798,53.215,263.3744,48.841,91.4405,-0.00076674,-0.00012475,0.0,0 STARLINK-3149,1 49423U 21104R   22078.58334491 -.00012475  00000-0 -76674-3 0  9990,2 49423  53.2150 263.3744 0001798  48.8410  91.4405 15.08854769 20647,6917.835,95.437,540.944,538.456,0.0
49423.0,STARLINK-3149,PAYLOAD,2022-03-19 22:00:01,15.08825535,0.0001969,53.2149,261.8794,42.8427,109.1158,0.0026075,0.00041439,0.0,0 STARLINK-3149,1 49423U 21104R   22078.91668981  .00041439  00000-0  26075-2 0  9990,2 49423  53.2149 261.8794 0001969  42.8427 109.1158 15.08825535  3614,6917.925,95.438,541.1519999999998,538.427,0.0
49423.0,STARLINK-3149,PAYLOAD,2022-03-20 14:00:01,15.08858551,0.0001945,53.215,258.8849,50.7974,124.3012,-0.0025517,-0.00040691,0.0,0 STARLINK-3149,1 49423U 21104R   22079.58334491 -.00040691  00000-0 -25517-2 0  9991,2 49423  53.2150 258.8849 0001945  50.7974 124.3012 15.08858551 20792,6917.824000000001,95.436,541.034,538.3430000000002,0.0
49423.0,STARLINK-3149,PAYLOAD,2022-03-20 22:00:01,15.08811044,0.0002133,53.2151,257.3898,45.4641,141.3058,0.0031668,0.00050433,0.0,0 STARLINK-3149,1 49423U 21104R   22079.91668981  .00050433  00000-0  31668-2 0  9999,2 49423  53.2151 257.3898 0002133  45.4641 141.3058 15.08811044  3609,6917.969,95.439,541.31,538.3580000000002,0.0
49423.0,STARLINK-3149,PAYLOAD,2022-03-21 06:00:00,15.088325400000002,0.0001991,53.2152,255.8917,48.7746,149.5149,0.00042576,6.493e-05,0.0,0 STARLINK-3149,1 49423U 21104R   22080.25001157  .00006493  00000-0  42576-3 0  9992,2 49423  53.2152 255.8917 0001991  48.7746 149.5149 15.08832540 20893,6917.903,95.438,541.146,538.391,0.0
49423.0,STARLINK-3149,PAYLOAD,2022-03-21 14:00:01,15.08865133,0.0002037,53.2154,254.3955,50.9733,158.9028,-0.0022862,-0.00036515,0.0,0 STARLINK-3149,1 49423U 21104R   22080.58334491 -.00036515  00000-0 -22862-2 0  9993,2 49423  53.2154 254.3955 0002037  50.9733 158.9028 15.08865133  3585,6917.804,95.436,541.078,538.259,0.0
49423.0,STARLINK-3149,PAYLOAD,2022-03-21 22:00:00,15.08806333,0.0002151,53.2156,252.9005,44.0679,177.4256,0.0021393,0.00033892,0.0,0 STARLINK-3149,1 49423U 21104R   22080.91667824  .00033892  00000-0  21393-2 0  9990,2 49423  53.2156 252.9005 0002151  44.0679 177.4256 15.08806333  3594,6917.983,95.44,541.336,538.36,0.0
49423.0,STARLINK-3149,PAYLOAD,2022-03-22 14:00:01,15.08846402,0.0002045,53.216,249.9064,49.2138,195.4274,-0.001165,-0.00018785,0.0,0 STARLINK-3149,1 49423U 21104R   22081.58334491 -.00018785  00000-0 -11650-2 0  9996,2 49423  53.2160 249.9064 0002045  49.2138 195.4274 15.08846402 21095,6917.861,95.437,541.141,538.311,0.0
49423.0,STARLINK-3149,PAYLOAD,2022-03-22 22:00:01,15.08815172,0.0002196,53.216,248.4113,44.3242,211.9799,0.0031375,0.00049966,0.0,0 STARLINK-3149,1 49423U 21104R   22081.91668981  .00049966  00000-0  31375-2 0  9996,2 49423  53.2160 248.4113 0002196  44.3242 211.9799 15.08815172  3606,6917.956,95.439,541.34,538.302,0.0
49423.0,STARLINK-3149,PAYLOAD,2022-03-23 08:00:01,15.08821701,0.0001996,53.2161,246.5388,49.5307,311.2096,0.0033742,0.00053796,0.0,0 STARLINK-3149,1 49423U 21104R   22082.33334491  .00053796  00000-0  33742-2 0  9995,2 49423  53.2161 246.5388 0001996  49.5307 311.2096 15.08821701 21201,6917.936,95.439,541.182,538.4209999999998,0.0
49423.0,STARLINK-3149,PAYLOAD,2022-03-23 14:00:01,15.08878421,0.0002047,53.2163,245.4174,48.5241,230.9039,-0.0035761,-0.00056814,0.0,0 STARLINK-3149,1 49423U 21104R   22082.58334491 -.00056814  00000-0 -35761-2 0  9991,2 49423  53.2163 245.4174 0002047  48.5241 230.9039 15.08878421  3618,6917.763000000001,95.435,541.044,538.212,0.0
49423.0,STARLINK-3149,PAYLOAD,2022-03-23 22:00:00,15.08815447,0.000214,53.2161,243.9222,42.3497,248.7002,0.0024926,0.00039579,0.0,0 STARLINK-3149,1 49423U 21104R   22082.91667824  .00039579  00000-0  24926-2 0  9995,2 49423  53.2161 243.9222 0002140  42.3497 248.7002 15.08815447 21292,6917.955,95.439,541.3009999999998,538.34,0.0
49423.0,STARLINK-3149,PAYLOAD,2022-03-24 14:00:01,15.08868815,0.0001977,53.2163,240.9285,46.8039,267.4196,-0.0029351,-0.00046735,0.0,0 STARLINK-3149,1 49423U 21104R   22083.58334491 -.00046735  00000-0 -29351-2 0  9991,2 49423  53.2163 240.9285 0001977  46.8039 267.4196 15.08868815  3589,6917.792,95.436,541.025,538.29,0.0
49423.0,STARLINK-3149,PAYLOAD,2022-03-24 22:00:00,15.08818777,0.0002064,53.2158,239.4331,40.889,284.9527,0.0016328,0.00025779,0.0,0 STARLINK-3149,1 49423U 21104R   22083.91667824  .00025779  00000-0  16328-2 0  9990,2 49423  53.2158 239.4331 0002064  40.8890 284.9527 15.08818777  3602,6917.945,95.439,541.238,538.382,0.0
49423.0,STARLINK-3149,PAYLOAD,2022-03-25 00:00:02,15.08835482,0.0002028,53.2156,239.0585,41.0369,17.7597,-0.00034575,-5.786e-05,0.0,0 STARLINK-3149,1 49423U 21104R   22084.00002315 -.00005786  00000-0 -34575-3 0  9992,2 49423  53.2156 239.0585 0002028  41.0369  17.7597 15.08835482 21466,6917.894,95.438,541.1619999999998,538.356,0.0
49423.0,STARLINK-3149,PAYLOAD,2022-03-25 14:00:01,15.08855508,0.0001915,53.2158,236.4396,45.0893,303.9161,-0.0016982,-0.00027225,0.0,0 STARLINK-3149,1 49423U 21104R   22084.58334491 -.00027225  00000-0 -16982-2 0  9991,2 49423  53.2158 236.4396 0001915  45.0893 303.9161 15.08855508  3580,6917.833000000001,95.437,541.023,538.373,0.0
